[{"OBJECT_NAME":"STARLINK-4761","OBJECT_ID":"2022-114N","EPOCH":"2025-10-10T06:10:25.932576","MEAN_MOTION":15.08839207,"ECCENTRICITY":0.00013469,"INCLINATION":53.2159,"RA_OF_ASC_NODE":259.2673,"ARG_OF_PERICENTER":89.7777,"MEAN_ANOMALY":270.337,"EPHEMERIS_TYPE":0,"CLASSIFICATION_TYPE":"U","NORAD_CAT_ID":53830,"ELEMENT_SET_NO":999,"REV_AT_EPOCH":17012,"BSTAR":4.9390938e-5,"MEAN_MOTION_DOT":4.98e-6,"MEAN_MOTION_DDOT":0},{"OBJECT_NAME":"STARLINK-4649","OBJECT_ID":"2022-114P","EPOCH":"2025-10-10T04:56:15.836640","MEAN_MOTION":15.08835754,"ECCENTRICITY":0.00012785,"INCLINATION":53.2164,"RA_OF_ASC_NODE":259.6543,"ARG_OF_PERICENTER":92.4475,"MEAN_ANOMALY":267.6663,"EPHEMERIS_TYPE":0,"CLASSIFICATION_TYPE":"U","NORAD_CAT_ID":53831,"ELEMENT_SET_NO":999,"REV_AT_EPOCH":17011,"BSTAR":0.00014096224,"MEAN_MOTION_DOT":1.956e-5,"MEAN_MOTION_DDOT":0},{"OBJECT_NAME":"STARLINK-4747","OBJECT_ID":"2022-114Q","EPOCH":"2025-10-10T05:59:49.597440","MEAN_MOTION":15.08836178,"ECCENTRICITY":0.00014841,"INCLINATION":53.2168,"RA_OF_ASC_NODE":259.2221,"ARG_OF_PERICENTER":86.8631,"MEAN_ANOMALY":273.2531,"EPHEMERIS_TYPE":0,"CLASSIFICATION_TYPE":"U","NORAD_CAT_ID":53832,"ELEMENT_SET_NO":999,"REV_AT_EPOCH":17012,"BSTAR":3.8969831e-5,"MEAN_MOTION_DOT":3.32e-6,"MEAN_MOTION_DDOT":0},{"OBJECT_NAME":"STARLINK-4771","OBJECT_ID":"2022-114R","EPOCH":"2025-10-10T04:41:44.516832","MEAN_MOTION":15.0883969,"ECCENTRICITY":0.00016112,"INCLINATION":53.2164,"RA_OF_ASC_NODE":259.5916,"ARG_OF_PERICENTER":80.8624,"MEAN_ANOMALY":279.255,"EPHEMERIS_TYPE":0,"CLASSIFICATION_TYPE":"U","NORAD_CAT_ID":53833,"ELEMENT_SET_NO":999,"REV_AT_EPOCH":17011,"BSTAR":2.6341141e-5,"MEAN_MOTION_DOT":1.31e-6,"MEAN_MOTION_DDOT":0},{"OBJECT_NAME":"STARLINK-4737","OBJECT_ID":"2022-114S","EPOCH":"2025-10-10T05:49:12.472608","MEAN_MOTION":15.08838161,"ECCENTRICITY":0.0001313,"INCLINATION":53.2166,"RA_OF_ASC_NODE":259.1751,"ARG_OF_PERICENTER":90.0881,"MEAN_ANOMALY":270.0262,"EPHEMERIS_TYPE":0,"CLASSIFICATION_TYPE":"U","NORAD_CAT_ID":53834,"ELEMENT_SET_NO":999,"REV_AT_EPOCH":17012,"BSTAR":4.8496936e-5,"MEAN_MOTION_DOT":4.84e-6,"MEAN_MOTION_DDOT":0},{"OBJECT_NAME":"STARLINK-4783","OBJECT_ID":"2022-114T","EPOCH":"2025-10-10T06:05:07.393056","MEAN_MOTION":15.0884163,"ECCENTRICITY":0.00013912,"INCLINATION":53.216,"RA_OF_ASC_NODE":259.2439,"ARG_OF_PERICENTER":89.3984,"MEAN_ANOMALY":270.7167,"EPHEMERIS_TYPE":0,"CLASSIFICATION_TYPE":"U","NORAD_CAT_ID":53835,"ELEMENT_SET_NO":999,"REV_AT_EPOCH":17012,"BSTAR":8.3808129e-5,"MEAN_MOTION_DOT":1.046e-5,"MEAN_MOTION_DDOT":0},{"OBJECT_NAME":"STARLINK-4778","OBJECT_ID":"2022-114U","EPOCH":"2025-10-10T05:24:07.659360","MEAN_MOTION":15.08842315,"ECCENTRICITY":0.00012872,"INCLINATION":53.2156,"RA_OF_ASC_NODE":249.7862,"ARG_OF_PERICENTER":87.6347,"MEAN_ANOMALY":272.4792,"EPHEMERIS_TYPE":0,"CLASSIFICATION_TYPE":"U","NORAD_CAT_ID":53836,"ELEMENT_SET_NO":999,"REV_AT_EPOCH":17025,"BSTAR":5.7849727e-5,"MEAN_MOTION_DOT":6.33e-6,"MEAN_MOTION_DDOT":0},{"OBJECT_NAME":"STARLINK-4776","OBJECT_ID":"2022-114V","EPOCH":"2025-10-10T05:54:31.007808","MEAN_MOTION":15.08835746,"ECCENTRICITY":0.0001549,"INCLINATION":53.2166,"RA_OF_ASC_NODE":259.1983,"ARG_OF_PERICENTER":92.2394,"MEAN_ANOMALY":267.8776,"EPHEMERIS_TYPE":0,"CLASSIFICATION_TYPE":"U","NORAD_CAT_ID":53837,"ELEMENT_SET_NO":999,"REV_AT_EPOCH":17012,"BSTAR":5.3399542e-5,"MEAN_MOTION_DOT":5.62e-6,"MEAN_MOTION_DDOT":0},{"OBJECT_NAME":"STARLINK-4773","OBJECT_ID":"2022-114W","EPOCH":"2025-10-10T03:43:27.234048","MEAN_MOTION":15.08830022,"ECCENTRICITY":0.00014119,"INCLINATION":53.2165,"RA_OF_ASC_NODE":250.0657,"ARG_OF_PERICENTER":83.3176,"MEAN_ANOMALY":276.7977,"EPHEMERIS_TYPE":0,"CLASSIFICATION_TYPE":"U","NORAD_CAT_ID":53838,"ELEMENT_SET_NO":999,"REV_AT_EPOCH":17024,"BSTAR":-0.00017465088,"MEAN_MOTION_DOT":-3.066e-5,"MEAN_MOTION_DDOT":0},{"OBJECT_NAME":"STARLINK-4784","OBJECT_ID":"2022-114X","EPOCH":"2025-10-10T05:29:27.839616","MEAN_MOTION":15.08833288,"ECCENTRICITY":0.00019069,"INCLINATION":53.218,"RA_OF_ASC_NODE":249.817,"ARG_OF_PERICENTER":82.4942,"MEAN_ANOMALY":277.6267,"EPHEMERIS_TYPE":0,"CLASSIFICATION_TYPE":"U","NORAD_CAT_ID":53839,"ELEMENT_SET_NO":999,"REV_AT_EPOCH":17025,"BSTAR":4.4135468e-5,"MEAN_MOTION_DOT":4.14e-6,"MEAN_MOTION_DDOT":0},{"OBJECT_NAME":"STARLINK-4766","OBJECT_ID":"2022-114Y","EPOCH":"2025-10-10T03:28:54.300288","MEAN_MOTION":15.08834664,"ECCENTRICITY":0.00015806,"INCLINATION":53.2168,"RA_OF_ASC_NODE":250.0016,"ARG_OF_PERICENTER":89.6538,"MEAN_ANOMALY":270.4635,"EPHEMERIS_TYPE":0,"CLASSIFICATION_TYPE":"U","NORAD_CAT_ID":53840,"ELEMENT_SET_NO":999,"REV_AT_EPOCH":17024,"BSTAR":3.2328667e-5,"MEAN_MOTION_DOT":2.26e-6,"MEAN_MOTION_DDOT":0},{"OBJECT_NAME":"STARLINK-4750","OBJECT_ID":"2022-114Z","EPOCH":"2025-10-10T05:13:31.056384","MEAN_MOTION":15.08843102,"ECCENTRICITY":0.00013458,"INCLINATION":53.2163,"RA_OF_ASC_NODE":249.7454,"ARG_OF_PERICENTER":89.8116,"MEAN_ANOMALY":270.303,"EPHEMERIS_TYPE":0,"CLASSIFICATION_TYPE":"U","NORAD_CAT_ID":53841,"ELEMENT_SET_NO":999,"REV_AT_EPOCH":17025,"BSTAR":8.22148e-5,"MEAN_MOTION_DOT":1.021e-5,"MEAN_MOTION_DDOT":0},{"OBJECT_NAME":"STARLINK-4754","OBJECT_ID":"2022-114AA","EPOCH":"2025-10-10T04:52:17.684544","MEAN_MOTION":15.08835005,"ECCENTRICITY":0.00013362,"INCLINATION":53.2168,"RA_OF_ASC_NODE":249.6519,"ARG_OF_PERICENTER":91.1867,"MEAN_ANOMALY":268.9278,"EPHEMERIS_TYPE":0,"CLASSIFICATION_TYPE":"U","NORAD_CAT_ID":53842,"ELEMENT_SET_NO":999,"REV_AT_EPOCH":17025,"BSTAR":5.7601893e-5,"MEAN_MOTION_DOT":6.29e-6,"MEAN_MOTION_DDOT":0},{"OBJECT_NAME":"STARLINK-4769","OBJECT_ID":"2022-114AB","EPOCH":"2025-10-10T03:32:50.177472","MEAN_MOTION":15.08830105,"ECCENTRICITY":0.00013796,"INCLINATION":53.2169,"RA_OF_ASC_NODE":250.0204,"ARG_OF_PERICENTER":90.5891,"MEAN_ANOMALY":269.526,"EPHEMERIS_TYPE":0,"CLASSIFICATION_TYPE":"U","NORAD_CAT_ID":53843,"ELEMENT_SET_NO":999,"REV_AT_EPOCH":17024,"BSTAR":-1.0695063e-5,"MEAN_MOTION_DOT":-4.58e-6,"MEAN_MOTION_DDOT":0},{"OBJECT_NAME":"STARLINK-4745","OBJECT_ID":"2022-114AC","EPOCH":"2025-10-10T04:41:40.915680","MEAN_MOTION":15.08837916,"ECCENTRICITY":0.00015911,"INCLINATION":53.2167,"RA_OF_ASC_NODE":249.6065,"ARG_OF_PERICENTER":91.4632,"MEAN_ANOMALY":268.6542,"EPHEMERIS_TYPE":0,"CLASSIFICATION_TYPE":"U","NORAD_CAT_ID":53844,"ELEMENT_SET_NO":999,"REV_AT_EPOCH":17025,"BSTAR":7.1729348e-5,"MEAN_MOTION_DOT":8.54e-6,"MEAN_MOTION_DDOT":0},{"OBJECT_NAME":"STARLINK-4753","OBJECT_ID":"2022-114AD","EPOCH":"2025-10-10T04:57:36.896256","MEAN_MOTION":15.08824948,"ECCENTRICITY":0.00014761,"INCLINATION":53.2165,"RA_OF_ASC_NODE":249.696,"ARG_OF_PERICENTER":90.9571,"MEAN_ANOMALY":269.159,"EPHEMERIS_TYPE":0,"CLASSIFICATION_TYPE":"U","NORAD_CAT_ID":53845,"ELEMENT_SET_NO":999,"REV_AT_EPOCH":17025,"BSTAR":-0.00015989213,"MEAN_MOTION_DOT":-2.831e-5,"MEAN_MOTION_DDOT":0},{"OBJECT_NAME":"STARLINK-4746","OBJECT_ID":"2022-114AE","EPOCH":"2025-10-10T04:31:03.936000","MEAN_MOTION":15.0884247,"ECCENTRICITY":0.00013856,"INCLINATION":53.2161,"RA_OF_ASC_NODE":249.5612,"ARG_OF_PERICENTER":91.1391,"MEAN_ANOMALY":268.976,"EPHEMERIS_TYPE":0,"CLASSIFICATION_TYPE":"U","NORAD_CAT_ID":53846,"ELEMENT_SET_NO":999,"REV_AT_EPOCH":17025,"BSTAR":4.3742094e-5,"MEAN_MOTION_DOT":4.08e-6,"MEAN_MOTION_DDOT":0},{"OBJECT_NAME":"STARLINK-4777","OBJECT_ID":"2022-114AF","EPOCH":"2025-10-10T04:46:59.392128","MEAN_MOTION":15.08838898,"ECCENTRICITY":0.00017546,"INCLINATION":53.2168,"RA_OF_ASC_NODE":249.6267,"ARG_OF_PERICENTER":91.9422,"MEAN_ANOMALY":268.1771,"EPHEMERIS_TYPE":0,"CLASSIFICATION_TYPE":"U","NORAD_CAT_ID":53847,"ELEMENT_SET_NO":999,"REV_AT_EPOCH":17025,"BSTAR":2.2075518e-5,"MEAN_MOTION_DOT":6.3e-7,"MEAN_MOTION_DDOT":0},{"OBJECT_NAME":"STARLINK-4780","OBJECT_ID":"2022-114AG","EPOCH":"2025-10-10T04:20:27.474720","MEAN_MOTION":15.08840262,"ECCENTRICITY":0.00014332,"INCLINATION":53.2165,"RA_OF_ASC_NODE":249.5176,"ARG_OF_PERICENTER":87.3613,"MEAN_ANOMALY":272.7544,"EPHEMERIS_TYPE":0,"CLASSIFICATION_TYPE":"U","NORAD_CAT_ID":53848,"ELEMENT_SET_NO":999,"REV_AT_EPOCH":17025,"BSTAR":6.6738625e-5,"MEAN_MOTION_DOT":7.74e-6,"MEAN_MOTION_DDOT":0},{"OBJECT_NAME":"STARLINK-4770","OBJECT_ID":"2022-114AH","EPOCH":"2025-10-10T04:36:22.540320","MEAN_MOTION":15.08837216,"ECCENTRICITY":0.00014434,"INCLINATION":53.2168,"RA_OF_ASC_NODE":249.5826,"ARG_OF_PERICENTER":95.8998,"MEAN_ANOMALY":264.2159,"EPHEMERIS_TYPE":0,"CLASSIFICATION_TYPE":"U","NORAD_CAT_ID":53849,"ELEMENT_SET_NO":999,"REV_AT_EPOCH":17025,"BSTAR":8.97244e-7,"MEAN_MOTION_DOT":-2.74e-6,"MEAN_MOTION_DDOT":0},{"OBJECT_NAME":"STARLINK-4767","OBJECT_ID":"2022-114AJ","EPOCH":"2025-10-10T07:15:18.506592","MEAN_MOTION":15.08849237,"ECCENTRICITY":0.00015503,"INCLINATION":53.2167,"RA_OF_ASC_NODE":248.8548,"ARG_OF_PERICENTER":73.6665,"MEAN_ANOMALY":286.4498,"EPHEMERIS_TYPE":0,"CLASSIFICATION_TYPE":"U","NORAD_CAT_ID":53850,"ELEMENT_SET_NO":999,"REV_AT_EPOCH":17027,"BSTAR":2.2495507e-5,"MEAN_MOTION_DOT":7.0e-7,"MEAN_MOTION_DDOT":0},{"OBJECT_NAME":"STARLINK-4755","OBJECT_ID":"2022-114AK","EPOCH":"2025-10-10T04:25:45.932160","MEAN_MOTION":15.0884264,"ECCENTRICITY":0.0001384,"INCLINATION":53.2158,"RA_OF_ASC_NODE":249.5382,"ARG_OF_PERICENTER":99.0415,"MEAN_ANOMALY":261.0734,"EPHEMERIS_TYPE":0,"CLASSIFICATION_TYPE":"U","NORAD_CAT_ID":53851,"ELEMENT_SET_NO":999,"REV_AT_EPOCH":17025,"BSTAR":2.6194748e-5,"MEAN_MOTION_DOT":1.29e-6,"MEAN_MOTION_DDOT":0},{"OBJECT_NAME":"STARLINK-4797","OBJECT_ID":"2022-114AL","EPOCH":"2025-10-10T06:20:23.964000","MEAN_MOTION":15.08810762,"ECCENTRICITY":0.00015242,"INCLINATION":53.2173,"RA_OF_ASC_NODE":244.3385,"ARG_OF_PERICENTER":95.9306,"MEAN_ANOMALY":264.186,"EPHEMERIS_TYPE":0,"CLASSIFICATION_TYPE":"U","NORAD_CAT_ID":53852,"ELEMENT_SET_NO":999,"REV_AT_EPOCH":17033,"BSTAR":0.00030274179,"MEAN_MOTION_DOT":4.53e-5,"MEAN_MOTION_DDOT":0}]
